COSMOS 2534 [GLONASS-M] 
1 44299U 19030A   26195.90315938  .00000058  00000+0  00000+0 0  9993
2 44299  64.3705 191.6832 0013535 275.0523 246.8587  2.13102157 55514
BEIDOU-3 IGSO-2         
1 44337U 19035A   26195.79641084 -.00000139  00000+0  00000+0 0  9993
2 44337  55.2501 158.6203 0039536 216.6664 322.6164  1.00257889 25947
NAVSTAR 78 (USA 293)    
1 44506U 19056A   26194.52259712 -.00000092  00000+0  00000+0 0  9995
2 44506  55.6228 330.0964 0063366 198.1416 125.2994  2.00569859 50593
BEIDOU-3 M24            
1 44542U 19061A   26196.16401773  .00000041  00000+0  00000+0 0  9992
2 44542  54.3974 181.7843 0008628 359.5226   0.4506  1.86229144 46317
BEIDOU-3 M23            
1 44543U 19061B   26196.02844935  .00000042  00000+0  00000+0 0  9990
2 44543  54.3957 181.7573 0005920 339.9531 200.5494  1.86227542 46311
EUTELSAT 5 WEST B       
1 44624U 19067A   26195.62938687 -.00000051  00000+0  00000+0 0  9990
2 44624   0.0701 333.5012 0003096 138.5371  42.0158  1.00269913 24718
BEIDOU-3 M22            
1 44793U 19078A   26194.39343167 -.00000062  00000+0  00000+0 0  9997
2 44793  53.9106 298.9058 0005750  50.3045 309.7753  1.86227300 45134
BEIDOU-3 M21            
1 44794U 19078B   26196.14417837 -.00000066  00000+0  00000+0 0  9993
2 44794  53.8818 298.8044 0003444  48.1201 311.9449  1.86227652 45176
COSMOS 2544 [GLONASS-M] 
1 44850U 19088A   26192.43092179 -.00000019  00000+0  00000+0 0  9991
2 44850  65.5782  72.9223 0012329 255.3827 104.5453  2.13103002 51235
BEIDOU-3 M19            
1 44864U 19090A   26196.14526441 -.00000041  00000+0  00000+0 0  9990
2 44864  56.5835  61.8670 0016848 297.6426 260.6959  1.86231023 44754
BEIDOU-3 M20            
1 44865U 19090B   26195.48425657 -.00000039  00000+0  00000+0 0  9991
2 44865  56.5841  61.9230 0014393 312.7381 252.0119  1.86231148 44725
BEIDOU-3 G2             
1 45344U 20017A   26196.14522132 -.00000150  00000+0  00000+0 0  9999
2 45344   2.9191  47.7231 0001941  61.7447 315.8275  1.00268994 23546
COSMOS 2545 [GLONASS-M] 
1 45358U 20018A   26195.44141854 -.00000061  00000+0  00000+0 0  9996
2 45358  64.3375 311.4616 0009519 229.8963 130.0324  2.13102424 49241
BEIDOU-3 G3             
1 45807U 20040A   26196.22559737 -.00000365  00000+0  00000+0 0  9997
2 45807   2.5135  67.4753 0002228 307.6935 109.5824  1.00276514 22358
NAVSTAR 79 (USA 304)    
1 45854U 20041A   26195.63993094 -.00000066  00000+0  00000+0 0  9990
2 45854  56.6877  27.8790 0065143 204.6636 142.7605  2.00557744 44586
GALAXY 30 (G-30)        
1 46114U 20056C   26196.14109618  .00000028  00000+0  00000+0 0  9991
2 46114   0.0150  53.2973 0001988  62.4110 103.0695  1.00271782 21570
COSMOS 2547 [GLONASS-K] 
1 46805U 20075A   26196.10040731  .00000057  00000+0  00000+0 0  9997
2 46805  64.6014 191.5438 0009464 239.9648 119.9463  2.13099926 44508
NAVSTAR 80 (USA 309)    
1 46826U 20078A   26195.94015624  .00000054  00000+0  00000+0 0  9994
2 46826  53.9773 209.6528 0074545 207.8161 333.6893  2.00564930 42060
NAVSTAR 81 (USA 319)    
1 48859U 21054A   26193.93300233 -.00000091  00000+0  00000+0 0  9999
2 48859  55.1610 331.4250 0026406 228.5393 130.0348  2.00567088 37265
QZS-1R (MICHIBIKI-1R)   
1 49336U 21096A   26195.57629205 -.00000304  00000+0  00000+0 0  9998
2 49336  37.5157  79.1769 0754906 272.2285 280.2291  1.00245239 17281
GSAT0223 (GALILEO 27)   
1 49809U 21116A   26193.80162081 -.00000091  00000+0  00000+0 0  9997
2 49809  57.1512 340.9841 0002430 195.8611 164.1379  1.70475864 28612
GSAT0224 (GALILEO 28)   
1 49810U 21116B   26194.50046551 -.00000094  00000+0  00000+0 0  9993
2 49810  57.1519 340.9637 0001862 181.9105 359.6169  1.70475939 28651
COSMOS 2557 [GLONASS-K] 
1 52984U 22075A   26195.32601985 -.00000064  00000+0  00000+0 0  9990
2 52984  64.2811 313.5296 0010789 271.5937  88.2918  2.13102227 31291
COSMOS 2559 [GLONASS-K] 
1 54031U 22130A   26195.61497903 -.00000064  00000+0  00000+0 0  9992
2 54031  64.2534 313.6016 0013079 180.9552 179.0524  2.13101638 29272
COSMOS 2564 [GLONASS-M] 
1 54377U 22161A   26195.92736262  .00000059  00000+0  00000+0 0  9990
2 54377  64.7437 191.7908 0012238 224.9723 134.9352  2.13101973 28227
NAVSTAR 82 (USA 343)    
1 55268U 23009A   26196.12832123  .00000009  00000+0  00000+0 0  9993
2 55268  55.1239 147.4206 0006246 321.9357 220.4571  2.00569545 25807
BEIDOU-3 G4             
1 56564U 23066A   26196.22835767 -.00000290  00000+0  00000+0 0  9997
2 56564   0.4606 338.9375 0004890 187.1848 349.2274  1.00272447 11673
NVS-01 (IRNSS-1J)       
1 56759U 23076A   26196.01241683 -.00000345  00000+0  00000+0 0  9990
2 56759   2.1020 243.0876 0003554   7.1567 176.5156  1.00264755 11397
COSMOS 2569 [GLONASS-K2]
1 57517U 23114A   26195.47042529 -.00000009  00000+0  00000+0 0  9990
2 57517  65.3177  71.7007 0009702 296.0065  63.9698  2.13103712 22841
BEIDOU-3 M28            
1 58654U 23207A   26195.14722610 -.00000041  00000+0  00000+0 0  9992
2 58654  55.7766  61.3937 0002448   4.5208 355.5548  1.86229649 17349
BEIDOU-3 M26            
1 58655U 23207B   26194.94472031 -.00000041  00000+0  00000+0 0  9999
2 58655  55.7789  61.3870 0002015 324.6571  35.4025  1.86229652 17326
